TROLL                   
1 62658U 25009BB  26068.22522958  .00013174  00000+0  48220-3 0  9994
2 62658  97.3932 150.7169 0001816  59.1850 300.9568 15.28164315118170
STARLINK-33931          
1 64006U 25101N   26068.19438065  .00026621  00000+0  97277-3 0  9994
2 64006  43.0027   0.4019 0001225 290.8123  69.2597 15.27602185 47009
